{"links": {"self": "http://www.neowsapp.com/rest/v1/neo/54225732?api_key=FmrG2O4vhIIH0uDdm1blYB13CNhWmoy9QjeKfrjm"}, "id": "54225732", "neo_reference_id": "54225732", "name": "(2021 XG)", "designation": "2021 XG", "nasa_jpl_url": "http://ssd.jpl.nasa.gov/sbdb.cgi?sstr=54225732", "absolute_magnitude_h": 27.935, "estimated_diameter": {"kilometers": {"estimated_diameter_min": 0.0068794699, "estimated_diameter_max": 0.0153829624}, "meters": {"estimated_diameter_min": 6.8794699285, "estimated_diameter_max": 15.3829624092}, "miles": {"estimated_diameter_min": 0.0042747031, "estimated_diameter_max": 0.0095585267}, "feet": {"estimated_diameter_min": 22.5704401201, "estimated_diameter_max": 50.4690383907}}, "is_potentially_hazardous_asteroid": false, "close_approach_data": {"close_approach_date": "2021-12-11", "close_approach_date_full": "2021-Dec-11 13:22", "epoch_date_close_approach": 1639228920000, "relative_velocity": {"kilometers_per_second": "4.8231437315", "kilometers_per_hour": "17363.3174335661", "miles_per_hour": "10788.8902130955"}, "miss_distance": {"astronomical": "0.0197151301", "lunar": "7.6691856089", "kilometers": "2949341.469732887", "miles": "1832635.8088403606"}, "orbiting_body": "Earth"}, "orbital_data": {"orbit_id": "3", "orbit_determination_date": "2021-12-06 04:52:28", "first_observation_date": "2021-12-01", "last_observation_date": "2021-12-06", "data_arc_in_days": 5, "observations_used": 21, "orbit_uncertainty": "6", "minimum_orbit_intersection": ".00191527", "jupiter_tisserand_invariant": "6.295", "epoch_osculation": "2459600.5", "eccentricity": ".1740744312178174", "semi_major_axis": ".954108423076114", "inclination": "3.726059257387316", "ascending_node_longitude": "258.521486685186", "orbital_period": "340.4042876675238", "perihelion_distance": ".7880225420090108", "perihelion_argument": "292.0474469139964", "aphelion_distance": "1.120194304143217", "perihelion_time": "2459647.916636458318", "mean_anomaly": "309.8537775714893", "mean_motion": "1.057565997381371", "equinox": "J2000", "orbit_class": {"orbit_class_type": "ATE", "orbit_class_description": "Near-Earth asteroid orbits similar to that of 2062 Aten", "orbit_class_range": "a (semi-major axis) < 1.0 AU; q (perihelion) > 0.983 AU"}}, "is_sentry_object": false}